{
  "type": "FeatureCollection",
  "features": [
    {
      "type": "Feature",
      "properties": {
        "norad_id": 66726,
        "name": "FLOCK 4H-23",
        "group": "last-30-days",
        "lat": 74.21488241257947,
        "lon": 45.68235932297106,
        "alt_km": 509.05903742668124,
        "timestamp": "2025-12-27T17:24:56.105264+00:00",
        "meta_object_name": "FLOCK 4H-23",
        "meta_object_id": "2025-276BN",
        "meta_epoch": "2025-12-27T10:45:01.107072",
        "meta_mean_motion": 15.1727908,
        "meta_eccentricity": 0.0003657,
        "meta_inclination": 97.4436,
        "meta_ra_of_asc_node": 72.9575,
        "meta_arg_of_pericenter": 222.2131,
        "meta_mean_anomaly": 137.8821,
        "meta_ephemeris_type": 0,
        "meta_classification_type": "U",
        "meta_norad_cat_id": 66726,
        "meta_element_set_no": 999,
        "meta_rev_at_epoch": 435,
        "meta_bstar": 0.00033339,
        "meta_mean_motion_dot": 6.576e-05,
        "meta_mean_motion_ddot": 0,
        "tle_line1": "1 66726U 25276BN  25361.44792948  .00006576  00000+0  33339-3 0  9990",
        "tle_line2": "2 66726  97.4436  72.9575 0003657 222.2131 137.8821 15.17279080  4353"
      },
      "geometry": {
        "type": "Point",
        "coordinates": [
          45.68235932297106,
          74.21488241257947
        ]
      }
    },
    {
      "type": "Feature",
      "properties": {
        "norad_id": 66727,
        "name": "FLOCK 4H-24",
        "group": "last-30-days",
        "lat": 81.99344733145503,
        "lon": 4.881264653879719,
        "alt_km": 508.08668205766116,
        "timestamp": "2025-12-27T17:24:56.105276+00:00",
        "meta_object_name": "FLOCK 4H-24",
        "meta_object_id": "2025-276BP",
        "meta_epoch": "2025-12-27T10:42:08.908416",
        "meta_mean_motion": 15.17383355,
        "meta_eccentricity": 0.0002961,
        "meta_inclination": 97.4435,
        "meta_ra_of_asc_node": 72.9626,
        "meta_arg_of_pericenter": 239.6461,
        "meta_mean_anomaly": 120.448,
        "meta_ephemeris_type": 0,
        "meta_classification_type": "U",
        "meta_norad_cat_id": 66727,
        "meta_element_set_no": 999,
        "meta_rev_at_epoch": 435,
        "meta_bstar": 0.00030902,
        "meta_mean_motion_dot": 6.108e-05,
        "meta_mean_motion_ddot": 0,
        "tle_line1": "1 66727U 25276BP  25361.44593644  .00006108  00000+0  30902-3 0  9997",
        "tle_line2": "2 66727  97.4435  72.9626 0002961 239.6461 120.4480 15.17383355  4355"
      },
      "geometry": {
        "type": "Point",
        "coordinates": [
          4.881264653879719,
          81.99344733145503
        ]
      }
    },
    {
      "type": "Feature",
      "properties": {
        "norad_id": 66728,
        "name": "FLOCK 4H-25",
        "group": "last-30-days",
        "lat": 0.3364729748507343,
        "lon": -106.6987124549056,
        "alt_km": 513.5946106478214,
        "timestamp": "2025-12-27T17:24:56.105286+00:00",
        "meta_object_name": "FLOCK 4H-25",
        "meta_object_id": "2025-276BQ",
        "meta_epoch": "2025-12-27T11:52:55.903008",
        "meta_mean_motion": 15.18272319,
        "meta_eccentricity": 0.0001773,
        "meta_inclination": 97.4391,
        "meta_ra_of_asc_node": 73.0306,
        "meta_arg_of_pericenter": 114.4967,
        "meta_mean_anomaly": 245.6452,
        "meta_ephemeris_type": 0,
        "meta_classification_type": "U",
        "meta_norad_cat_id": 66728,
        "meta_element_set_no": 999,
        "meta_rev_at_epoch": 364,
        "meta_bstar": 0.00034743,
        "meta_mean_motion_dot": 7.054e-05,
        "meta_mean_motion_ddot": 0,
        "tle_line1": "1 66728U 25276BQ  25361.49509147  .00007054  00000+0  34743-3 0  9996",
        "tle_line2": "2 66728  97.4391  73.0306 0001773 114.4967 245.6452 15.18272319  3643"
      },
      "geometry": {
        "type": "Point",
        "coordinates": [
          -106.6987124549056,
          0.3364729748507343
        ]
      }
    },
    {
      "type": "Feature",
      "properties": {
        "norad_id": 66729,
        "name": "FLOCK 4H-26",
        "group": "last-30-days",
        "lat": 65.53155731971135,
        "lon": 56.5232849212807,
        "alt_km": 510.4435579491801,
        "timestamp": "2025-12-27T17:24:56.105298+00:00",
        "meta_object_name": "FLOCK 4H-26",
        "meta_object_id": "2025-276BR",
        "meta_epoch": "2025-12-27T10:47:28.986720",
        "meta_mean_motion": 15.17210383,
        "meta_eccentricity": 0.0003742,
        "meta_inclination": 97.4385,
        "meta_ra_of_asc_node": 72.9372,
        "meta_arg_of_pericenter": 239.0492,
        "meta_mean_anomaly": 121.0374,
        "meta_ephemeris_type": 0,
        "meta_classification_type": "U",
        "meta_norad_cat_id": 66729,
        "meta_element_set_no": 999,
        "meta_rev_at_epoch": 435,
        "meta_bstar": 0.0005403,
        "meta_mean_motion_dot": 0.00010683,
        "meta_mean_motion_ddot": 0,
        "tle_line1": "1 66729U 25276BR  25361.44964105  .00010683  00000+0  54030-3 0  9994",
        "tle_line2": "2 66729  97.4385  72.9372 0003742 239.0492 121.0374 15.17210383  4354"
      },
      "geometry": {
        "type": "Point",
        "coordinates": [
          56.5232849212807,
          65.53155731971135
        ]
      }
    },
    {
      "type": "Feature",
      "properties": {
        "norad_id": 66730,
        "name": "FLOCK 4H-27",
        "group": "last-30-days",
        "lat": 14.167593051508453,
        "lon": -104.86891767145012,
        "alt_km": 511.759913811391,
        "timestamp": "2025-12-27T17:24:56.105309+00:00",
        "meta_object_name": "FLOCK 4H-27",
        "meta_object_id": "2025-276BS",
        "meta_epoch": "2025-12-27T10:21:39.908160",
        "meta_mean_motion": 15.18146459,
        "meta_eccentricity": 0.0001392,
        "meta_inclination": 97.4364,
        "meta_ra_of_asc_node": 72.9527,
        "meta_arg_of_pericenter": 124.8142,
        "meta_mean_anomaly": 235.3223,
        "meta_ephemeris_type": 0,
        "meta_classification_type": "U",
        "meta_norad_cat_id": 66730,
        "meta_element_set_no": 999,
        "meta_rev_at_epoch": 435,
        "meta_bstar": 0.00086531,
        "meta_mean_motion_dot": 0.0001763,
        "meta_mean_motion_ddot": 0,
        "tle_line1": "1 66730U 25276BS  25361.43171190  .00017630  00000+0  86531-3 0  9999",
        "tle_line2": "2 66730  97.4364  72.9527 0001392 124.8142 235.3223 15.18146459  4352"
      },
      "geometry": {
        "type": "Point",
        "coordinates": [
          -104.86891767145012,
          14.167593051508453
        ]
      }
    },
    {
      "type": "Feature",
      "properties": {
        "norad_id": 66731,
        "name": "FLOCK 4H-28",
        "group": "last-30-days",
        "lat": 66.93564802090228,
        "lon": 55.33823393256663,
        "alt_km": 510.12148556300053,
        "timestamp": "2025-12-27T17:24:56.105329+00:00",
        "meta_object_name": "FLOCK 4H-28",
        "meta_object_id": "2025-276BT",
        "meta_epoch": "2025-12-27T12:22:03.667008",
        "meta_mean_motion": 15.17192553,
        "meta_eccentricity": 0.0003374,
        "meta_inclination": 97.4375,
        "meta_ra_of_asc_node": 72.998,
        "meta_arg_of_pericenter": 239.8434,
        "meta_mean_anomaly": 120.2465,
        "meta_ephemeris_type": 0,
        "meta_classification_type": "U",
        "meta_norad_cat_id": 66731,
        "meta_element_set_no": 999,
        "meta_rev_at_epoch": 436,
        "meta_bstar": 0.00032366,
        "meta_mean_motion_dot": 6.366e-05,
        "meta_mean_motion_ddot": 0,
        "tle_line1": "1 66731U 25276BT  25361.51532022  .00006366  00000+0  32366-3 0  9995",
        "tle_line2": "2 66731  97.4375  72.9980 0003374 239.8434 120.2465 15.17192553  4367"
      },
      "geometry": {
        "type": "Point",
        "coordinates": [
          55.33823393256663,
          66.93564802090228
        ]
      }
    },
    {
      "type": "Feature",
      "properties": {
        "norad_id": 66732,
        "name": "FLOCK 4H-29",
        "group": "last-30-days",
        "lat": 79.66794789471882,
        "lon": 27.441050322435785,
        "alt_km": 507.9504538825486,
        "timestamp": "2025-12-27T17:24:56.105341+00:00",
        "meta_object_name": "FLOCK 4H-29",
        "meta_object_id": "2025-276BU",
        "meta_epoch": "2025-12-27T10:43:15.417408",
        "meta_mean_motion": 15.17332625,
        "meta_eccentricity": 0.000208,
        "meta_inclination": 97.4367,
        "meta_ra_of_asc_node": 72.9314,
        "meta_arg_of_pericenter": 254.8708,
        "meta_mean_anomaly": 105.2295,
        "meta_ephemeris_type": 0,
        "meta_classification_type": "U",
        "meta_norad_cat_id": 66732,
        "meta_element_set_no": 999,
        "meta_rev_at_epoch": 435,
        "meta_bstar": 0.00031381,
        "meta_mean_motion_dot": 6.194e-05,
        "meta_mean_motion_ddot": 0,
        "tle_line1": "1 66732U 25276BU  25361.44670622  .00006194  00000+0  31381-3 0  9992",
        "tle_line2": "2 66732  97.4367  72.9314 0002080 254.8708 105.2295 15.17332625  4353"
      },
      "geometry": {
        "type": "Point",
        "coordinates": [
          27.441050322435785,
          79.66794789471882
        ]
      }
    }
  ]
}